[{"OBJECT_NAME":"STARLINK-6109","OBJECT_ID":"2023-046B","EPOCH":"2026-03-09T22:00:01.999584","MEAN_MOTION":15.06089505,"ECCENTRICITY":0.00015703,"INCLINATION":43.0008,"RA_OF_ASC_NODE":157.9064,"ARG_OF_PERICENTER":268.0495,"MEAN_ANOMALY":100.9448,"EPHEMERIS_TYPE":0,"CLASSIFICATION_TYPE":"U","NORAD_CAT_ID":56094,"ELEMENT_SET_NO":999,"REV_AT_EPOCH":567,"BSTAR":0.00012509635,"MEAN_MOTION_DOT":1.648e-5,"MEAN_MOTION_DDOT":0},{"OBJECT_NAME":"OBJECT A","OBJECT_ID":"2025-197A","EPOCH":"2026-03-09T23:57:28.367136","MEAN_MOTION":15.09670549,"ECCENTRICITY":0.0013887,"INCLINATION":97.4116,"RA_OF_ASC_NODE":254.3664,"ARG_OF_PERICENTER":14.3167,"MEAN_ANOMALY":345.8453,"EPHEMERIS_TYPE":0,"CLASSIFICATION_TYPE":"U","NORAD_CAT_ID":65488,"ELEMENT_SET_NO":999,"REV_AT_EPOCH":2804,"BSTAR":0.00030852597,"MEAN_MOTION_DOT":4.917e-5,"MEAN_MOTION_DDOT":0}]
